[{"OBJECT_NAME":"STARLINK-36979","OBJECT_ID":"2026-039L","EPOCH":"2026-03-24T22:00:00.999936","MEAN_MOTION":15.47182883,"ECCENTRICITY":0.00012384,"INCLINATION":42.9995,"RA_OF_ASC_NODE":323.2722,"ARG_OF_PERICENTER":260.0232,"MEAN_ANOMALY":266.1891,"EPHEMERIS_TYPE":0,"CLASSIFICATION_TYPE":"U","NORAD_CAT_ID":67996,"ELEMENT_SET_NO":999,"REV_AT_EPOCH":532,"BSTAR":-0.041500945,"MEAN_MOTION_DOT":-0.01935322,"MEAN_MOTION_DDOT":0},{"OBJECT_NAME":"STARLINK-36994","OBJECT_ID":"2026-039M","EPOCH":"2026-03-24T22:00:00.999936","MEAN_MOTION":15.50531343,"ECCENTRICITY":0.00019247,"INCLINATION":43,"RA_OF_ASC_NODE":323.6226,"ARG_OF_PERICENTER":255.2787,"MEAN_ANOMALY":128.6004,"EPHEMERIS_TYPE":0,"CLASSIFICATION_TYPE":"U","NORAD_CAT_ID":67997,"ELEMENT_SET_NO":999,"REV_AT_EPOCH":532,"BSTAR":0.00070255524,"MEAN_MOTION_DOT":0.00041021,"MEAN_MOTION_DDOT":0},{"OBJECT_NAME":"STARLINK-36988","OBJECT_ID":"2026-039N","EPOCH":"2026-03-24T22:00:00.999936","MEAN_MOTION":15.50534439,"ECCENTRICITY":0.00014258,"INCLINATION":42.9999,"RA_OF_ASC_NODE":323.5646,"ARG_OF_PERICENTER":280.7008,"MEAN_ANOMALY":126.9185,"EPHEMERIS_TYPE":0,"CLASSIFICATION_TYPE":"U","NORAD_CAT_ID":67998,"ELEMENT_SET_NO":999,"REV_AT_EPOCH":532,"BSTAR":0.00070034815,"MEAN_MOTION_DOT":0.00040894,"MEAN_MOTION_DDOT":0},{"OBJECT_NAME":"STARLINK-36926","OBJECT_ID":"2026-039P","EPOCH":"2026-03-24T22:00:00.999936","MEAN_MOTION":15.50531545,"ECCENTRICITY":0.000152,"INCLINATION":43.0001,"RA_OF_ASC_NODE":323.5998,"ARG_OF_PERICENTER":258.3158,"MEAN_ANOMALY":134.8812,"EPHEMERIS_TYPE":0,"CLASSIFICATION_TYPE":"U","NORAD_CAT_ID":67999,"ELEMENT_SET_NO":999,"REV_AT_EPOCH":532,"BSTAR":0.00095520039,"MEAN_MOTION_DOT":0.00056002,"MEAN_MOTION_DDOT":0},{"OBJECT_NAME":"STARLINK-36931","OBJECT_ID":"2026-039Q","EPOCH":"2026-03-24T22:00:00.999936","MEAN_MOTION":15.50531704,"ECCENTRICITY":0.00018013,"INCLINATION":42.9999,"RA_OF_ASC_NODE":323.3174,"ARG_OF_PERICENTER":279.3761,"MEAN_ANOMALY":227.8425,"EPHEMERIS_TYPE":0,"CLASSIFICATION_TYPE":"U","NORAD_CAT_ID":68000,"ELEMENT_SET_NO":999,"REV_AT_EPOCH":532,"BSTAR":0.00070831417,"MEAN_MOTION_DOT":0.00041362,"MEAN_MOTION_DDOT":0},{"OBJECT_NAME":"STARLINK-36903","OBJECT_ID":"2026-039R","EPOCH":"2026-03-24T22:00:00.999936","MEAN_MOTION":15.42836731,"ECCENTRICITY":0.00016068,"INCLINATION":42.9998,"RA_OF_ASC_NODE":323.6497,"ARG_OF_PERICENTER":256.5798,"MEAN_ANOMALY":116.1396,"EPHEMERIS_TYPE":0,"CLASSIFICATION_TYPE":"U","NORAD_CAT_ID":68001,"ELEMENT_SET_NO":999,"REV_AT_EPOCH":532,"BSTAR":-0.048154416,"MEAN_MOTION_DOT":-0.01933249,"MEAN_MOTION_DDOT":0},{"OBJECT_NAME":"STARLINK-36898","OBJECT_ID":"2026-039S","EPOCH":"2026-03-24T22:00:00.999936","MEAN_MOTION":15.41313005,"ECCENTRICITY":0.00015782,"INCLINATION":43.0002,"RA_OF_ASC_NODE":323.4517,"ARG_OF_PERICENTER":268.5819,"MEAN_ANOMALY":184.3285,"EPHEMERIS_TYPE":0,"CLASSIFICATION_TYPE":"U","NORAD_CAT_ID":68002,"ELEMENT_SET_NO":999,"REV_AT_EPOCH":532,"BSTAR":-0.048668034,"MEAN_MOTION_DOT":-0.01863555,"MEAN_MOTION_DDOT":0},{"OBJECT_NAME":"STARLINK-36862","OBJECT_ID":"2026-039T","EPOCH":"2026-03-24T22:00:00.999936","MEAN_MOTION":15.39912024,"ECCENTRICITY":0.00017932,"INCLINATION":43.0002,"RA_OF_ASC_NODE":323.6015,"ARG_OF_PERICENTER":257.5047,"MEAN_ANOMALY":134.2783,"EPHEMERIS_TYPE":0,"CLASSIFICATION_TYPE":"U","NORAD_CAT_ID":68003,"ELEMENT_SET_NO":999,"REV_AT_EPOCH":532,"BSTAR":-0.051504405,"MEAN_MOTION_DOT":-0.01880071,"MEAN_MOTION_DDOT":0},{"OBJECT_NAME":"STARLINK-36888","OBJECT_ID":"2026-039U","EPOCH":"2026-03-24T22:00:00.999936","MEAN_MOTION":15.40792255,"ECCENTRICITY":0.00018651,"INCLINATION":42.9999,"RA_OF_ASC_NODE":323.6373,"ARG_OF_PERICENTER":255.4912,"MEAN_ANOMALY":122.32,"EPHEMERIS_TYPE":0,"CLASSIFICATION_TYPE":"U","NORAD_CAT_ID":68004,"ELEMENT_SET_NO":999,"REV_AT_EPOCH":532,"BSTAR":-0.050092677,"MEAN_MOTION_DOT":-0.01882839,"MEAN_MOTION_DDOT":0},{"OBJECT_NAME":"STARLINK-36910","OBJECT_ID":"2026-039V","EPOCH":"2026-03-24T22:00:00.999936","MEAN_MOTION":15.4070318,"ECCENTRICITY":0.00012539,"INCLINATION":42.999,"RA_OF_ASC_NODE":323.3748,"ARG_OF_PERICENTER":272.4217,"MEAN_ANOMALY":211.6363,"EPHEMERIS_TYPE":0,"CLASSIFICATION_TYPE":"U","NORAD_CAT_ID":68005,"ELEMENT_SET_NO":999,"REV_AT_EPOCH":532,"BSTAR":-0.049685029,"MEAN_MOTION_DOT":-0.01863769,"MEAN_MOTION_DDOT":0},{"OBJECT_NAME":"STARLINK-36889","OBJECT_ID":"2026-039W","EPOCH":"2026-03-24T17:13:30.865440","MEAN_MOTION":15.50618521,"ECCENTRICITY":7.917e-5,"INCLINATION":43.0005,"RA_OF_ASC_NODE":324.763,"ARG_OF_PERICENTER":267.7658,"MEAN_ANOMALY":92.3112,"EPHEMERIS_TYPE":0,"CLASSIFICATION_TYPE":"U","NORAD_CAT_ID":68006,"ELEMENT_SET_NO":999,"REV_AT_EPOCH":399,"BSTAR":0.00099001767,"MEAN_MOTION_DOT":0.00058253,"MEAN_MOTION_DDOT":0},{"OBJECT_NAME":"STARLINK-36592","OBJECT_ID":"2026-039X","EPOCH":"2026-03-24T22:00:00.999936","MEAN_MOTION":15.44550701,"ECCENTRICITY":0.00012421,"INCLINATION":42.9991,"RA_OF_ASC_NODE":323.3367,"ARG_OF_PERICENTER":282.1435,"MEAN_ANOMALY":216.9546,"EPHEMERIS_TYPE":0,"CLASSIFICATION_TYPE":"U","NORAD_CAT_ID":68007,"ELEMENT_SET_NO":999,"REV_AT_EPOCH":532,"BSTAR":-0.045451014,"MEAN_MOTION_DOT":-0.01934501,"MEAN_MOTION_DDOT":0},{"OBJECT_NAME":"STARLINK-36911","OBJECT_ID":"2026-039Y","EPOCH":"2026-03-24T22:00:00.999936","MEAN_MOTION":15.48422368,"ECCENTRICITY":0.00012375,"INCLINATION":42.9996,"RA_OF_ASC_NODE":323.3922,"ARG_OF_PERICENTER":279.9319,"MEAN_ANOMALY":196.4652,"EPHEMERIS_TYPE":0,"CLASSIFICATION_TYPE":"U","NORAD_CAT_ID":68008,"ELEMENT_SET_NO":999,"REV_AT_EPOCH":532,"BSTAR":-0.03976533,"MEAN_MOTION_DOT":-0.01936909,"MEAN_MOTION_DDOT":0},{"OBJECT_NAME":"STARLINK-36956","OBJECT_ID":"2026-039Z","EPOCH":"2026-03-24T22:00:00.999936","MEAN_MOTION":15.50623488,"ECCENTRICITY":0.00018356,"INCLINATION":42.9995,"RA_OF_ASC_NODE":323.4523,"ARG_OF_PERICENTER":261.9533,"MEAN_ANOMALY":189.5705,"EPHEMERIS_TYPE":0,"CLASSIFICATION_TYPE":"U","NORAD_CAT_ID":68009,"ELEMENT_SET_NO":999,"REV_AT_EPOCH":532,"BSTAR":-0.03697959,"MEAN_MOTION_DOT":-0.01947419,"MEAN_MOTION_DDOT":0},{"OBJECT_NAME":"STARLINK-36953","OBJECT_ID":"2026-039AA","EPOCH":"2026-03-24T22:00:00.999936","MEAN_MOTION":15.43106307,"ECCENTRICITY":0.00010446,"INCLINATION":42.9996,"RA_OF_ASC_NODE":322.9949,"ARG_OF_PERICENTER":250.1548,"MEAN_ANOMALY":27.0195,"EPHEMERIS_TYPE":0,"CLASSIFICATION_TYPE":"U","NORAD_CAT_ID":68010,"ELEMENT_SET_NO":999,"REV_AT_EPOCH":532,"BSTAR":-0.046350505,"MEAN_MOTION_DOT":-0.01883317,"MEAN_MOTION_DDOT":0},{"OBJECT_NAME":"STARLINK-36991","OBJECT_ID":"2026-039AB","EPOCH":"2026-03-24T22:47:07.285632","MEAN_MOTION":15.50595687,"ECCENTRICITY":0.0002133,"INCLINATION":42.9991,"RA_OF_ASC_NODE":323.935,"ARG_OF_PERICENTER":261.0895,"MEAN_ANOMALY":98.9724,"EPHEMERIS_TYPE":0,"CLASSIFICATION_TYPE":"U","NORAD_CAT_ID":68011,"ELEMENT_SET_NO":999,"REV_AT_EPOCH":402,"BSTAR":0.00065654432,"MEAN_MOTION_DOT":0.00038388,"MEAN_MOTION_DDOT":0}]
