STARLINK-36979          
1 67996U 26039L   26083.91667824 -.01935322  00000+0 -41501-1 0  9997
2 67996  42.9995 323.2722 0001238 260.0232 266.1891 15.47182883  5327
STARLINK-36994          
1 67997U 26039M   26083.91667824  .00041021  00000+0  70256-3 0  9990
2 67997  43.0000 323.6226 0001924 255.2787 128.6004 15.50531343  5324
STARLINK-36988          
1 67998U 26039N   26083.91667824  .00040894  00000+0  70035-3 0  9993
2 67998  42.9999 323.5646 0001425 280.7008 126.9185 15.50534439  5320
STARLINK-36926          
1 67999U 26039P   26083.91667824  .00056002  00000+0  95520-3 0  9998
2 67999  43.0001 323.5998 0001520 258.3158 134.8812 15.50531545  5320
STARLINK-36931          
1 68000U 26039Q   26083.91667824  .00041362  00000+0  70831-3 0  9993
2 68000  42.9999 323.3174 0001801 279.3761 227.8425 15.50531704  5327
STARLINK-36903          
1 68001U 26039R   26083.91667824 -.01933249  00000+0 -48154-1 0  9992
2 68001  42.9998 323.6497 0001606 256.5798 116.1396 15.42836731  5324
STARLINK-36898          
1 68002U 26039S   26083.91667824 -.01863555  00000+0 -48668-1 0  9995
2 68002  43.0002 323.4517 0001578 268.5819 184.3285 15.41313005  5326
STARLINK-36862          
1 68003U 26039T   26083.91667824 -.01880071  00000+0 -51504-1 0  9991
2 68003  43.0002 323.6015 0001793 257.5047 134.2783 15.39912024  5322
STARLINK-36888          
1 68004U 26039U   26083.91667824 -.01882839  00000+0 -50093-1 0  9998
2 68004  42.9999 323.6373 0001865 255.4912 122.3200 15.40792255  5327
STARLINK-36910          
1 68005U 26039V   26083.91667824 -.01863769  00000+0 -49685-1 0  9995
2 68005  42.9990 323.3748 0001253 272.4217 211.6363 15.40703180  5321
STARLINK-36889          
1 68006U 26039W   26083.71771835  .00058253  00000+0  99002-3 0  9993
2 68006  43.0005 324.7630 0000791 267.7658  92.3112 15.50618521  3990
STARLINK-36592          
1 68007U 26039X   26083.91667824 -.01934501  00000+0 -45451-1 0  9997
2 68007  42.9991 323.3367 0001242 282.1435 216.9546 15.44550701  5323
STARLINK-36911          
1 68008U 26039Y   26083.91667824 -.01936909  00000+0 -39765-1 0  9993
2 68008  42.9996 323.3922 0001237 279.9319 196.4652 15.48422368  5326
STARLINK-36956          
1 68009U 26039Z   26083.91667824 -.01947419  00000+0 -36980-1 0  9998
2 68009  42.9995 323.4523 0001835 261.9533 189.5705 15.50623488  5328
STARLINK-36953          
1 68010U 26039AA  26083.91667824 -.01883317  00000+0 -46351-1 0  9999
2 68010  42.9996 322.9949 0001044 250.1548  27.0195 15.43106307  5322
STARLINK-36991          
1 68011U 26039AB  26083.94938988  .00038388  00000+0  65654-3 0  9991
2 68011  42.9991 323.9350 0002133 261.0895  98.9724 15.50595687  4023
